{"spkid": "50843595", "covariance": {"epoch": "2457759.5", "labels": ["e", "q", "tp", "node", "peri", "i"], "data": [["5.086166256341873E-15", "-4.492810010453782E-15", "1.701326647783387E-12", "-5.127914499104942E-13", "1.629688423672528E-12", "1.907317012474024E-12"], ["-4.492810010453782E-15", "3.988261357670544E-15", "-1.480237045437847E-12", "5.684265651891566E-13", "-1.506941315851341E-12", "-1.718663993300238E-12"], ["1.701326647783387E-12", "-1.480237045437847E-12", "1.746078174306301E-9", "-1.934743567894072E-10", "1.593447120732974E-9", "3.788208076006241E-10"], ["-5.127914499104942E-13", "5.684265651891566E-13", "-1.934743567894072E-10", "2.05892428607589E-9", "-1.931003045354493E-9", "5.708027666257585E-10"], ["1.629688423672528E-12", "-1.506941315851341E-12", "1.593447120732974E-9", "-1.931003045354493E-9", "3.000108935837005E-9", "-3.2271932629484E-10"], ["1.907317012474024E-12", "-1.718663993300238E-12", "3.788208076006241E-10", "5.708027666257585E-10", "-3.2271932629484E-10", "1.751106603845618E-9"]], "elements": [{"sigma": 7.13173629373792e-08, "name": "e", "units": null, "title": "eccentricity", "value": ".2378201190556703", "label": "e"}, {"label": "q", "title": "perihelion distance", "value": ".626647166565023", "units": "au", "name": "q", "sigma": 6.3152682901604e-08}, {"label": "tp", "name": "tp", "sigma": 4.1786100252432e-05, "title": "time of perihelion passage", "value": "2457761.739652785153", "units": "TDB"}, {"name": "om", "sigma": 4.53753709194304e-05, "units": "deg", "title": "longitude of the ascending node", "value": "290.3371828123828", "label": "node"}, {"sigma": 5.47732501850767e-05, "name": "w", "units": "deg", "value": "216.0895218696939", "title": "argument of perihelion", "label": "peri"}, {"units": "deg", "title": "inclination", "value": "12.63687161400848", "name": "i", "sigma": 4.18462256822e-05, "label": "i"}]}, "elements": [{"label": "e", "name": "e", "sigma": "6.962E-8", "value": ".2385668707239595", "title": "eccentricity", "units": null}, {"sigma": "6.4787E-9", "name": "a", "units": "au", "value": ".8218048633934317", "title": "semi-major axis", "label": "a"}, {"name": "q", "sigma": "6.0347E-8", "units": "au", "value": ".6257494487879297", "title": "perihelion distance", "label": "q"}, {"title": "inclination; angle with respect to x-y ecliptic plane", "value": "12.62874711668959", "units": "deg", "sigma": "4.1918E-5", "name": "i", "label": "i"}, {"units": "deg", "value": "290.1916194946372", "title": "longitude of the ascending node", "name": "om", "sigma": "4.5562E-5", "label": "node"}, {"units": "deg", "value": "216.1221178593144", "title": "argument of perihelion", "sigma": "5.4828E-5", "name": "w", "label": "peri"}, {"sigma": "7.5739E-5", "name": "ma", "title": "mean anomaly", "value": "227.5968182883519", "units": "deg", "label": "M"}, {"sigma": "5.8098E-5", "name": "tp", "title": "time of perihelion passage", "value": "2461300.580025704859", "units": "TDB", "label": "tp"}, {"name": "per", "sigma": "3.2178E-6", "units": "d", "value": "272.1143766183348", "title": "sidereal orbital period", "label": "period"}, {"label": "n", "title": "mean motion", "value": "1.322973098569256", "units": "deg/d", "sigma": "1.5645E-8", "name": "n"}, {"title": "aphelion distance", "value": "1.017860277998934", "units": "au", "sigma": "8.0243E-9", "name": "ad", "label": "Q"}], "epoch": "2461200.5"}